ONEWEB-0709             
1 55172U 23004AJ  24160.49900567 -.00000258  00000+0 -76413-3 0  9992
2 55172  87.8959 168.0867 0002529  65.4480 294.6911 13.11417052 69056
ONEWEB-0710             
1 55173U 23004AK  24160.49652391  .00000074  00000+0  15766-3 0  9990
2 55173  87.9159 152.9369 0001944  83.2238 276.9114 13.17647723 70302
ONEWEB-0711             
1 55174U 23004AL  24160.47019297  .00000577  00000+0  15919-2 0  9998
2 55174  87.8959 168.0616 0001127  99.2453 260.8802 13.11418513 69011
ONEWEB-0713             
1 55175U 23004AM  24160.48883990  .00000171  00000+0  44739-3 0  9992
2 55175  87.8958 168.0662 0001633  93.3502 266.7813 13.11413423 69005
ONEWEB-0715             
1 55176U 23004AN  24160.48372741  .00000243  00000+0  65039-3 0  9996
2 55176  87.8957 168.0673 0001907  78.3233 281.8109 13.11416530 69047
ONEWEB-0716             
1 55177U 23004AP  24160.49017335  .00000095  00000+0  21074-3 0  9999
2 55177  87.9162 152.9296 0002179  92.3004 267.8377 13.17651187 70301
ONEWEB-0717             
1 55178U 23004AQ  24160.47277961  .00000039  00000+0  66562-4 0  9991
2 55178  87.9160 152.8975 0001205  70.3345 289.7917 13.17646837 70350
ONEWEB-0719             
1 55179U 23004AR  24160.48386098 -.00000233  00000+0 -63212-3 0  9991
2 55179  87.9158 152.8817 0002027  97.3447 262.7914 13.17649217 70306
ONEWEB-0530             
1 55796U 23029A   24160.46175141  .00000106  00000+0  22758-3 0  9993
2 55796  87.9222  61.4560 0001328  82.9180 277.2105 13.20771116 63639
ONEWEB-0534             
1 55797U 23029B   24160.44912313  .00000133  00000+0  29531-3 0  9998
2 55797  87.9223  61.4656 0001996  85.3283 274.8078 13.20771098 63630
ONEWEB-0556             
1 55798U 23029C   24160.45543282  .00000056  00000+0  10603-3 0  9999
2 55798  87.9221  61.4576 0001843 108.4504 251.6829 13.20770265 63636
ONEWEB-0562             
1 55799U 23029D   24160.44280122  .00000101  00000+0  21610-3 0  9991
2 55799  87.9222  61.4506 0001142 109.8405 250.2851 13.20770254 63636
ONEWEB-0563             
1 55800U 23029E   24160.43648718  .00000145  00000+0  32536-3 0  9999
2 55800  87.9221  61.4670 0001925  89.7798 270.3556 13.20770237 63625
ONEWEB-0564             
1 55801U 23029F   24160.43019632  .00000292  00000+0  68673-3 0  9991
2 55801  87.9221  61.4534 0001458  76.8837 283.2459 13.20770789 63635
ONEWEB-0638             
1 55802U 23029G   24160.51774502  .00000211  00000+0  53559-3 0  9993
2 55802  87.8970  76.7219 0002195  97.9512 262.1867 13.14502824 62351
ONEWEB-0639             
1 55803U 23029H   24160.57635776  .00000000  00000+0 -31629-4 0  9991
2 55803  87.9154  91.9604 0003539  83.4003 276.7533 13.19725753 61489
ONEWEB-0640             
1 55804U 23029J   24160.52725336  .00000269  00000+0  69156-3 0  9990
2 55804  87.8969  76.7162 0002451  99.2358 260.9049 13.14501658 62370
ONEWEB-0641             
1 55805U 23029K   24160.57161932  .00000072  00000+0  14677-3 0  9992
2 55805  87.9151  91.9439 0002368  80.2121 279.9279 13.19724485 61493
ONEWEB-0642             
1 55806U 23029L   24160.56688621  .00000009  00000+0 -10040-4 0  9993
2 55806  87.9154  91.9668 0003209  77.7027 282.4465 13.19725251 61489
ONEWEB-0643             
1 55807U 23029M   24160.49710524  .00002009  00000+0  53813-2 0  9998
2 55807  87.8976  76.6988 0002979  65.4323 294.7116 13.14517996 62347
ONEWEB-0644             
1 55808U 23029N   24160.56212921  .00000047  00000+0  83845-4 0  9995
2 55808  87.9158  91.9638 0002733  77.4550 282.6889 13.19723858 61484
ONEWEB-0645             
1 55809U 23029P   24160.55819361  .00000044  00000+0  77380-4 0  9990
2 55809  87.9156  91.9659 0002589  87.6569 272.4860 13.19724560 61485
ONEWEB-0646             
1 55810U 23029Q   24160.51237311  .00000121  00000+0  26981-3 0  9993
2 55810  87.9154  91.9747 0002319  76.6150 283.5242 13.19723658 61460
ONEWEB-0648             
1 55811U 23029R   24160.46541382  .00000149  00000+0  36842-3 0  9991
2 55811  87.8973  76.6763 0003114  84.4354 275.7131 13.14502080 62341
ONEWEB-0649             
1 55812U 23029S   24160.55106717  .00000064  00000+0  12719-3 0  9994
2 55812  87.9153  91.9629 0002577  81.8879 278.2546 13.19722566 61502
ONEWEB-0650             
1 55813U 23029T   24160.31889906  .00000102  00000+0  22319-3 0  9997
2 55813  87.9155  92.0106 0002394  76.8837 283.2563 13.19724750 61447
ONEWEB-0652             
1 55814U 23029U   24160.52250175  .00000244  00000+0  62389-3 0  9999
2 55814  87.8970  76.6768 0001859  79.5812 280.5527 13.14504343 62329
ONEWEB-0653             
1 55815U 23029V   24160.50663261  .00000060  00000+0  12647-3 0  9990
2 55815  87.8972  76.6597 0001921  89.2078 270.9272 13.14502268 62351
ONEWEB-0654             
1 55816U 23029W   24160.50188347 -.00000109  00000+0 -32906-3 0  9994
2 55816  87.8971  76.6711 0001532  84.1314 275.9991 13.14502493 62379
ONEWEB-0656             
1 55817U 23029X   24160.42388457  .00000294  00000+0  69078-3 0  9993
2 55817  87.9220  61.3970 0001342  64.7999 295.3273 13.20770676 63634
ONEWEB-0657             
1 55818U 23029Y   24160.54159732  .00000090  00000+0  19330-3 0  9999
2 55818  87.9156  91.9715 0001839  54.0495 306.0808 13.19723290 61486
ONEWEB-0658             
1 55819U 23029Z   24160.53687617  .00000101  00000+0  22047-3 0  9999
2 55819  87.9155  91.9083 0002749  77.9232 282.2209 13.19724607 61492
ONEWEB-0660             
1 55820U 23029AA  24160.47968141 -.00000037  00000+0 -13327-3 0  9999
2 55820  87.8974  76.6498 0002384  88.8387 271.3016 13.14503017 62355
ONEWEB-0661             
1 55821U 23029AB  24160.51456709  .00000181  00000+0  45376-3 0  9994
2 55821  87.8971  76.7099 0002231  92.2936 267.8449 13.14501427 62343
ONEWEB-0662             
1 55822U 23029AC  24160.47333118  .00000056  00000+0  11774-3 0  9994
2 55822  87.8971  76.7258 0002329  85.4166 274.7230 13.14504462 62389
ONEWEB-0663             
1 55823U 23029AD  24160.41697987 -.00000011  00000+0 -59357-4 0  9999
2 55823  87.9220  61.4591 0002303  86.0040 274.1357 13.20787236 63620
ONEWEB-0664             
1 55824U 23029AE  24160.48699777  .00000030  00000+0  42441-4 0  9991
2 55824  87.9222  61.4584 0001806  95.8247 264.3092 13.20770502 63635
ONEWEB-0665             
1 55825U 23029AF  24160.51139848  .00000133  00000+0  32465-3 0  9992
2 55825  87.8969  76.6856 0002273  86.6558 273.4832 13.14502854 62363
ONEWEB-0666             
1 55826U 23029AG  24160.48070044  .00000074  00000+0  15116-3 0  9999
2 55826  87.9221  61.4503 0001507  73.3354 286.7945 13.20771688 63647
ONEWEB-0667             
1 55827U 23029AH  24160.47438048  .00000094  00000+0  19816-3 0  9994
2 55827  87.9220  61.3851 0002056  90.0698 270.0671 13.20770757 63636
ONEWEB-0669             
1 55828U 23029AJ  24160.46962656  .00000047  00000+0  82727-4 0  9991
2 55828  87.9222  61.4237 0001213  94.0756 266.0516 13.20774576 63637
ONEWEB-0670             
1 55829U 23029AK  24160.48919537 -.00000096  00000+0 -29443-3 0  9995
2 55829  87.8976  76.6951 0002196  94.8307 265.3073 13.14502117 62389
ONEWEB-0671             
1 55830U 23029AL  24160.53213814  .00000080  00000+0  16686-3 0  9994
2 55830  87.9154  91.9718 0002203  88.7237 271.4148 13.19726078 61473
ONEWEB-0672             
1 55831U 23029AM  24160.46490391  .00000066  00000+0  13131-3 0  9990
2 55831  87.9222  61.4083 0001702  73.0501 287.0819 13.20770446 63639
ONEWEB-0673             
1 55832U 23029AN  24160.50844005  .00000057  00000+0  11080-3 0  9992
2 55832  87.9152  91.9439 0002245  86.5474 273.5915 13.19725457 61473
ONEWEB-0674             
1 55833U 23029AP  24160.53359830  .00000216  00000+0  54728-3 0  9996
2 55833  87.8969  76.6926 0002014  96.6182 263.5177 13.14502347 62377
ONEWEB-0675             
1 55834U 23029AQ  24160.52422933  .00000127  00000+0  28476-3 0  9993
2 55834  87.9156  91.9732 0002144  68.8305 291.3056 13.19726335 61491
ONEWEB-0720             
1 55835U 23029AR  24160.51633560  .00000174  00000+0  40338-3 0  9996
2 55835  87.9155  91.9756 0002625  83.6242 276.5190 13.19724908 61416
ONEWEB-0537             
1 56046U 23043A   24160.50415029  .00000038  00000+0  65834-4 0  9992
2 56046  87.9104  15.8179 0001707  75.2441 284.8878 13.16593184 61767
ONEWEB-0538             
1 56047U 23043B   24160.49781808  .00000097  00000+0  22025-3 0  9991
2 56047  87.9107  15.8386 0002025  78.8470 281.2889 13.16593103 61771
ONEWEB-0546             
1 56048U 23043C   24160.33315446 -.00000041  00000+0 -14006-3 0  9997
2 56048  87.9107  15.8349 0001188  63.0243 297.1009 13.16592740 61747
ONEWEB-0547             
1 56049U 23043D   24160.37632465  .00000087  00000+0  17892-3 0  9999
2 56049  87.9301  31.0511 0001872  71.8290 288.3048 13.21766393 60628
ONEWEB-0548             
1 56050U 23043E   24160.58648665  .00000064  00000+0  13445-3 0  9998
2 56050  87.9109  15.8282 0001789 104.6533 255.4796 13.16593666 61770
ONEWEB-0549             
1 56051U 23043F   24160.59521511  .00000138  00000+0  30286-3 0  9994
2 56051  87.9301  31.0077 0002047  81.7289 278.4077 13.21826387 60656
ONEWEB-0550             
1 56052U 23043G   24160.58259569  .00000075  00000+0  14938-3 0  9991
2 56052  87.9295  31.0182 0001930  88.2898 271.8457 13.21826155 60656
ONEWEB-0551             
1 56053U 23043H   24160.41041076 -.00000081  00000+0 -24874-3 0  9995
2 56053  87.9050  46.2529 0002131  79.3960 280.7410 13.15549248 59265
ONEWEB-0552             
1 56054U 23043J   24160.57628830  .00000021  00000+0  18348-4 0  9994
2 56054  87.9293  31.0294 0002134  89.8492 270.2886 13.21824145 60650
ONEWEB-0553             
1 56055U 23043K   24160.56748151  .00000007  00000+0 -14885-4 0  9990
2 56055  87.9107  15.8205 0001531  75.7854 284.3447 13.16594032 61780
ONEWEB-0554             
1 56056U 23043L   24160.32682470  .00000015  00000+0  61708-5 0  9991
2 56056  87.9108  15.8893 0001971 105.7322 254.4026 13.16592964 61735
